[{"CCSDS_OMM_VERS":"3.0","COMMENT":"GENERATED VIA SPACE-TRACK.ORG API","CREATION_DATE":"2011-11-15T23:06:50","ORIGINATOR":"18 SPCS","OBJECT_NAME":"COSMOS 2251 DEB","OBJECT_ID":"1993-036ADL","CENTER_NAME":"EARTH","REF_FRAME":"TEME","TIME_SYSTEM":"UTC","MEAN_ELEMENT_THEORY":"SGP4","EPOCH":"2011-11-13T21:39:19.920960","MEAN_MOTION":"15.11869240","ECCENTRICITY":"0.01122620","INCLINATION":"73.7443","RA_OF_ASC_NODE":"147.5663","ARG_OF_PERICENTER":"236.8418","MEAN_ANOMALY":"130.2462","EPHEMERIS_TYPE":"0","CLASSIFICATION_TYPE":"U","NORAD_CAT_ID":"34915","ELEMENT_SET_NO":"999","REV_AT_EPOCH":"14246","BSTAR":"0.00763320000000","MEAN_MOTION_DOT":"0.00155103","MEAN_MOTION_DDOT":"0.0000000000000","SEMIMAJOR_AXIS":"6908.641","PERIOD":"95.246","APOAPSIS":"608.063","PERIAPSIS":"452.948","OBJECT_TYPE":"DEBRIS","RCS_SIZE":"SMALL","COUNTRY_CODE":"CIS","LAUNCH_DATE":"1993-06-16","SITE":"PKMTR","DECAY_DATE":"2012-03-23","FILE":"1188787","GP_ID":"85904193","TLE_LINE0":"0 COSMOS 2251 DEB","TLE_LINE1":"1 34915U 93036ADL 11317.90231390  .00155103  00000-0  76332-2 0  9991","TLE_LINE2":"2 34915 073.7443 147.5663 0112262 236.8418 130.2462 15.11869240142462"},{"CCSDS_OMM_VERS":"3.0","COMMENT":"GENERATED VIA SPACE-TRACK.ORG API","CREATION_DATE":"2024-04-14T02:53:50","ORIGINATOR":"18 SPCS","OBJECT_NAME":"COSMOS 2251 DEB","OBJECT_ID":"1993-036ADM","CENTER_NAME":"EARTH","REF_FRAME":"TEME","TIME_SYSTEM":"UTC","MEAN_ELEMENT_THEORY":"SGP4","EPOCH":"2024-04-13T16:23:15.622944","MEAN_MOTION":"16.07081024","ECCENTRICITY":"0.00172300","INCLINATION":"74.0205","RA_OF_ASC_NODE":"196.0075","ARG_OF_PERICENTER":"324.4718","MEAN_ANOMALY":"35.5376","EPHEMERIS_TYPE":"0","CLASSIFICATION_TYPE":"U","NORAD_CAT_ID":"34916","ELEMENT_SET_NO":"999","REV_AT_EPOCH":"80770","BSTAR":"0.01184600000000","MEAN_MOTION_DOT":"0.06767038","MEAN_MOTION_DDOT":"0.1064200000000","SEMIMAJOR_AXIS":"6633.000","PERIOD":"89.603","APOAPSIS":"266.294","PERIAPSIS":"243.436","OBJECT_TYPE":"DEBRIS","RCS_SIZE":"SMALL","COUNTRY_CODE":"CIS","LAUNCH_DATE":"1993-06-16","SITE":"PKMTR","DECAY_DATE":"2024-04-17","FILE":"4278987","GP_ID":"254567460","TLE_LINE0":"0 COSMOS 2251 DEB","TLE_LINE1":"1 34916U 93036ADM 24104.68281971  .06767038  10642+0  11846-1 0  9997","TLE_LINE2":"2 34916  74.0205 196.0075 0017230 324.4718  35.5376 16.07081024807703"},{"CCSDS_OMM_VERS":"3.0","COMMENT":"GENERATED VIA SPACE-TRACK.ORG API","CREATION_DATE":"2014-09-15T22:32:31","ORIGINATOR":"18 SPCS","OBJECT_NAME":"COSMOS 2251 DEB","OBJECT_ID":"1993-036ADN","CENTER_NAME":"EARTH","REF_FRAME":"TEME","TIME_SYSTEM":"UTC","MEAN_ELEMENT_THEORY":"SGP4","EPOCH":"2014-09-15T19:02:54.590496","MEAN_MOTION":"15.80672571","ECCENTRICITY":"0.00313220","INCLINATION":"73.9731","RA_OF_ASC_NODE":"39.8495","ARG_OF_PERICENTER":"341.1291","MEAN_ANOMALY":"18.8773","EPHEMERIS_TYPE":"0","CLASSIFICATION_TYPE":"U","NORAD_CAT_ID":"34917","ELEMENT_SET_NO":"999","REV_AT_EPOCH":"29734","BSTAR":"0.03220100000000","MEAN_MOTION_DOT":"0.08017546","MEAN_MOTION_DDOT":"0.0000000000000","SEMIMAJOR_AXIS":"6706.678","PERIOD":"91.100","APOAPSIS":"349.550","PERIAPSIS":"307.537","OBJECT_TYPE":"DEBRIS","RCS_SIZE":"SMALL","COUNTRY_CODE":"CIS","LAUNCH_DATE":"1993-06-16","SITE":"PKMTR","DECAY_DATE":"2014-09-16","FILE":"1746411","GP_ID":"96986208","TLE_LINE0":"0 COSMOS 2251 DEB","TLE_LINE1":"1 34917U 93036ADN 14258.79368739  .08017546  00000-0  32201-1 0  9997","TLE_LINE2":"2 34917 073.9731 039.8495 0031322 341.1291 018.8773 15.80672571297347"},{"CCSDS_OMM_VERS":"3.0","COMMENT":"GENERATED VIA SPACE-TRACK.ORG API","CREATION_DATE":"2026-03-24T04:52:42","ORIGINATOR":"18 SPCS","OBJECT_NAME":"COSMOS 2251 DEB","OBJECT_ID":"1993-036ADP","CENTER_NAME":"EARTH","REF_FRAME":"TEME","TIME_SYSTEM":"UTC","MEAN_ELEMENT_THEORY":"SGP4","EPOCH":"2026-03-23T08:59:23.456256","MEAN_MOTION":"14.62944283","ECCENTRICITY":"0.00259093","INCLINATION":"74.0683","RA_OF_ASC_NODE":"121.3496","ARG_OF_PERICENTER":"58.0755","MEAN_ANOMALY":"319.9305","EPHEMERIS_TYPE":"0","CLASSIFICATION_TYPE":"U","NORAD_CAT_ID":"34918","ELEMENT_SET_NO":"999","REV_AT_EPOCH":"66807","BSTAR":"0.00112297360000","MEAN_MOTION_DOT":"0.00005752","MEAN_MOTION_DDOT":"0.0000000000000","SEMIMAJOR_AXIS":"7061.820","PERIOD":"98.432","APOAPSIS":"701.982","PERIAPSIS":"665.388","OBJECT_TYPE":"DEBRIS","RCS_SIZE":"SMALL","COUNTRY_CODE":"CIS","LAUNCH_DATE":"1993-06-16","SITE":"PKMTR","DECAY_DATE":null,"FILE":"5095836","GP_ID":"316893402","TLE_LINE0":"0 COSMOS 2251 DEB","TLE_LINE1":"1 34918U 93036ADP 26082.37457704  .00005752  00000-0  11230-2 0  9999","TLE_LINE2":"2 34918  74.0683 121.3496 0025909  58.0755 319.9305 14.62944283668076"},{"CCSDS_OMM_VERS":"3.0","COMMENT":"GENERATED VIA SPACE-TRACK.ORG API","CREATION_DATE":"2012-03-04T09:10:54","ORIGINATOR":"18 SPCS","OBJECT_NAME":"COSMOS 2251 DEB","OBJECT_ID":"1993-036ADQ","CENTER_NAME":"EARTH","REF_FRAME":"TEME","TIME_SYSTEM":"UTC","MEAN_ELEMENT_THEORY":"SGP4","EPOCH":"2012-03-03T00:55:27.295967","MEAN_MOTION":"15.95634446","ECCENTRICITY":"0.00077900","INCLINATION":"73.9237","RA_OF_ASC_NODE":"294.6264","ARG_OF_PERICENTER":"275.2499","MEAN_ANOMALY":"83.7856","EPHEMERIS_TYPE":"0","CLASSIFICATION_TYPE":"U","NORAD_CAT_ID":"34919","ELEMENT_SET_NO":"999","REV_AT_EPOCH":"15581","BSTAR":"0.01493000000000","MEAN_MOTION_DOT":"0.04746986","MEAN_MOTION_DDOT":"0.0334570000000","SEMIMAJOR_AXIS":"6664.688","PERIOD":"90.246","APOAPSIS":"291.745","PERIAPSIS":"281.361","OBJECT_TYPE":"DEBRIS","RCS_SIZE":"SMALL","COUNTRY_CODE":"CIS","LAUNCH_DATE":"1993-06-16","SITE":"PKMTR","DECAY_DATE":"2012-03-03","FILE":"1248256","GP_ID":"87568403","TLE_LINE0":"0 COSMOS 2251 DEB","TLE_LINE1":"1 34919U 93036ADQ 12063.03851037 +.04746986 +33457-1 +14930-1 0  9991","TLE_LINE2":"2 34919 073.9237 294.6264 0007790 275.2499 083.7856 15.95634446155817"},{"CCSDS_OMM_VERS":"3.0","COMMENT":"GENERATED VIA SPACE-TRACK.ORG API","CREATION_DATE":"2025-06-15T14:56:19","ORIGINATOR":"18 SPCS","OBJECT_NAME":"COSMOS 2251 DEB","OBJECT_ID":"1993-036ADR","CENTER_NAME":"EARTH","REF_FRAME":"TEME","TIME_SYSTEM":"UTC","MEAN_ELEMENT_THEORY":"SGP4","EPOCH":"2025-06-15T12:55:29.136288","MEAN_MOTION":"15.66359650","ECCENTRICITY":"0.00107000","INCLINATION":"73.9701","RA_OF_ASC_NODE":"3.4264","ARG_OF_PERICENTER":"196.1956","MEAN_ANOMALY":"163.8925","EPHEMERIS_TYPE":"0","CLASSIFICATION_TYPE":"U","NORAD_CAT_ID":"34920","ELEMENT_SET_NO":"999","REV_AT_EPOCH":"85743","BSTAR":"0.00672270000000","MEAN_MOTION_DOT":"0.00766031","MEAN_MOTION_DDOT":"0.0000000000000","SEMIMAJOR_AXIS":"6747.468","PERIOD":"91.933","APOAPSIS":"376.553","PERIAPSIS":"362.113","OBJECT_TYPE":"DEBRIS","RCS_SIZE":"SMALL","COUNTRY_CODE":"CIS","LAUNCH_DATE":"1993-06-16","SITE":"PKMTR","DECAY_DATE":"2025-07-01","FILE":"4757396","GP_ID":"289982954","TLE_LINE0":"0 COSMOS 2251 DEB","TLE_LINE1":"1 34920U 93036ADR 25166.53853167  .00766031  00000-0  67227-2 0  9996","TLE_LINE2":"2 34920  73.9701   3.4264 0010700 196.1956 163.8925 15.66359650857438"},{"CCSDS_OMM_VERS":"3.0","COMMENT":"GENERATED VIA SPACE-TRACK.ORG API","CREATION_DATE":"2015-11-06T16:59:24","ORIGINATOR":"18 SPCS","OBJECT_NAME":"COSMOS 2251 DEB","OBJECT_ID":"1993-036ADS","CENTER_NAME":"EARTH","REF_FRAME":"TEME","TIME_SYSTEM":"UTC","MEAN_ELEMENT_THEORY":"SGP4","EPOCH":"2015-11-03T08:40:00.280704","MEAN_MOTION":"15.68425124","ECCENTRICITY":"0.00304290","INCLINATION":"73.9880","RA_OF_ASC_NODE":"61.1514","ARG_OF_PERICENTER":"343.0644","MEAN_ANOMALY":"16.9559","EPHEMERIS_TYPE":"0","CLASSIFICATION_TYPE":"U","NORAD_CAT_ID":"34921","ELEMENT_SET_NO":"999","REV_AT_EPOCH":"34883","BSTAR":"0.01604300000000","MEAN_MOTION_DOT":"0.02099006","MEAN_MOTION_DDOT":"0.0000000000000","SEMIMAJOR_AXIS":"6741.543","PERIOD":"91.811","APOAPSIS":"383.921","PERIAPSIS":"342.894","OBJECT_TYPE":"DEBRIS","RCS_SIZE":"SMALL","COUNTRY_CODE":"CIS","LAUNCH_DATE":"1993-06-16","SITE":"PKMTR","DECAY_DATE":"2015-11-08","FILE":"1950121","GP_ID":"101484890","TLE_LINE0":"0 COSMOS 2251 DEB","TLE_LINE1":"1 34921U 93036ADS 15307.36111436 +.02099006 +00000-0 +16043-1 0  9992","TLE_LINE2":"2 34921 073.9880 061.1514 0030429 343.0644 016.9559 15.68425124348835"},{"CCSDS_OMM_VERS":"3.0","COMMENT":"GENERATED VIA SPACE-TRACK.ORG API","CREATION_DATE":"2023-12-17T06:46:16","ORIGINATOR":"18 SPCS","OBJECT_NAME":"COSMOS 2251 DEB","OBJECT_ID":"1993-036ADT","CENTER_NAME":"EARTH","REF_FRAME":"TEME","TIME_SYSTEM":"UTC","MEAN_ELEMENT_THEORY":"SGP4","EPOCH":"2023-12-16T22:21:38.923200","MEAN_MOTION":"15.91882685","ECCENTRICITY":"0.00103130","INCLINATION":"74.1240","RA_OF_ASC_NODE":"175.3728","ARG_OF_PERICENTER":"201.9777","MEAN_ANOMALY":"158.1018","EPHEMERIS_TYPE":"0","CLASSIFICATION_TYPE":"U","NORAD_CAT_ID":"34922","ELEMENT_SET_NO":"999","REV_AT_EPOCH":"79531","BSTAR":"0.00443120000000","MEAN_MOTION_DOT":"0.01444255","MEAN_MOTION_DDOT":"0.0010129000000","SEMIMAJOR_AXIS":"6675.152","PERIOD":"90.459","APOAPSIS":"303.901","PERIAPSIS":"290.133","OBJECT_TYPE":"DEBRIS","RCS_SIZE":"SMALL","COUNTRY_CODE":"CIS","LAUNCH_DATE":"1993-06-16","SITE":"PKMTR","DECAY_DATE":"2023-12-20","FILE":"4138300","GP_ID":"244923799","TLE_LINE0":"0 COSMOS 2251 DEB","TLE_LINE1":"1 34922U 93036ADT 23350.93170050  .01444255  10129-2  44312-2 0  9995","TLE_LINE2":"2 34922  74.1240 175.3728 0010313 201.9777 158.1018 15.91882685795316"}]